NORAD_CAT_ID,OBJECT_NAME,OBJECT_TYPE,EPOCH,MEAN_MOTION,ECCENTRICITY,INCLINATION,RA_OF_ASC_NODE,ARG_OF_PERICENTER,MEAN_ANOMALY,BSTAR,MEAN_MOTION_DOT,MEAN_MOTION_DDOT,TLE_LINE0,TLE_LINE1,TLE_LINE2,SEMIMAJOR_AXIS,PERIOD,APOGEE,PERIGEE,DECAYED
54096.0,STARLINK-5188,PAYLOAD,2024-04-12 13:12:32,15.08836929,0.0001422,53.2171,219.0031,92.5209,267.5946,5.009e-07,-2.8e-06,0.0,0 STARLINK-5188,1 54096U 22136AX  24103.55037491 -.00000280  00000-0  50090-6 0  9993,2 54096  53.2171 219.0031 0001422  92.5209 267.5946 15.08836929 82366,6917.89,95.438,540.738,538.771,0.0
54096.0,STARLINK-5188,PAYLOAD,2024-04-13 14:38:42,15.08841684,0.0001395,53.2171,214.2448,90.3271,269.7881,0.00010542,1.39e-05,0.0,0 STARLINK-5188,1 54096U 22136AX  24104.61021390  .00001390  00000-0  10542-3 0  9999,2 54096  53.2171 214.2448 0001395  90.3271 269.7881 15.08841684 82051,6917.875,95.437,540.705,538.775,0.0
54096.0,STARLINK-5188,PAYLOAD,2024-04-14 14:29:29,15.08844989,0.0001338,53.2163,209.7826,74.2413,285.8727,0.0002276,3.337e-05,0.0,0 STARLINK-5188,1 54096U 22136AX  24105.60381507  .00003337  00000-0  22760-3 0  9996,2 54096  53.2163 209.7826 0001338  74.2413 285.8727 15.08844989 82203,6917.865,95.437,540.656,538.805,0.0
54096.0,STARLINK-5188,PAYLOAD,2024-04-15 12:44:53,15.08845785,0.0001431,53.2161,205.6198,71.4591,288.6557,0.00021859,3.193e-05,0.0,0 STARLINK-5188,1 54096U 22136AX  24106.53117494  .00003193  00000-0  21859-3 0  9999,2 54096  53.2161 205.6198 0001431  71.4591 288.6557 15.08845785 82812,6917.863,95.437,540.718,538.738,0.0
54096.0,STARLINK-5188,PAYLOAD,2024-04-15 23:52:34,15.08860236,0.0001512,53.2176,203.5365,94.9637,265.1527,0.00044898,6.869e-05,0.0,0 STARLINK-5188,1 54096U 22136AX  24106.99484692  .00006869  00000-0  44898-3 0  9997,2 54096  53.2176 203.5365 0001512  94.9637 265.1527 15.08860236 82884,6917.819,95.436,540.73,538.638,0.0
54096.0,STARLINK-5188,PAYLOAD,2024-04-16 12:35:40,15.08845139,0.0001659,53.2162,201.1593,93.8927,266.2254,0.00011563,1.553e-05,0.0,0 STARLINK-5188,1 54096U 22136AX  24107.52477271  .00001553  00000-0  11563-3 0  9990,2 54096  53.2162 201.1593 0001659  93.8927 266.2254 15.08845139 82961,6917.865,95.437,540.877,538.582,0.0
54096.0,STARLINK-5188,PAYLOAD,2024-04-17 12:26:27,15.08846872,0.0001594,53.2171,196.6972,104.1676,255.9493,0.00015177,2.129e-05,0.0,0 STARLINK-5188,1 54096U 22136AX  24108.51836864  .00002129  00000-0  15177-3 0  9992,2 54096  53.2171 196.6972 0001594 104.1676 255.9493 15.08846872 82645,6917.859,95.437,540.827,538.622,0.0
54096.0,STARLINK-5188,PAYLOAD,2024-04-18 12:17:15,15.08828343,0.0001441,53.216,192.236,105.6781,254.437,-0.00013094,-2.371e-05,0.0,0 STARLINK-5188,1 54096U 22136AX  24109.51197942 -.00002371  00000-0 -13094-3 0  9997,2 54096  53.2160 192.2360 0001441 105.6781 254.4370 15.08828343 83260,6917.916,95.438,540.778,538.784,0.0
54096.0,STARLINK-5188,PAYLOAD,2024-04-19 12:08:02,15.08839864,0.0001268,53.2166,187.7726,86.8903,273.2234,4.8141e-05,4.78e-06,0.0,0 STARLINK-5188,1 54096U 22136AX  24110.50557885  .00000478  00000-0  48141-4 0  9990,2 54096  53.2166 187.7726 0001268  86.8903 273.2234 15.08839864 83419,6917.881,95.438,540.623,538.869,0.0
54096.0,STARLINK-5188,PAYLOAD,2024-04-20 05:37:15,15.08845819,0.0001276,53.2165,184.5003,103.548,256.5654,0.00030921,4.637e-05,0.0,0 STARLINK-5188,1 54096U 22136AX  24111.23420912  .00004637  00000-0  30921-3 0  9998,2 54096  53.2165 184.5003 0001276 103.5480 256.5654 15.08845819 83526,6917.863,95.437,540.61,538.845,0.0
54096.0,STARLINK-5188,PAYLOAD,2024-04-20 10:23:27,15.08812395,0.0001498,53.2164,183.6114,67.8598,292.2553,-0.00015111,-2.69e-05,0.0,0 STARLINK-5188,1 54096U 22136AX  24111.43295399 -.00002690  00000-0 -15111-3 0  9992,2 54096  53.2164 183.6114 0001498  67.8598 292.2553 15.08812395 83557,6917.965,95.439,540.866,538.793,0.0
54096.0,STARLINK-5188,PAYLOAD,2024-04-21 03:52:41,15.08816942,0.0001557,53.217,180.3441,77.0229,283.0937,-0.00025728,-4.378e-05,0.0,0 STARLINK-5188,1 54096U 22136AX  24112.16159714 -.00004378  00000-0 -25728-3 0  9993,2 54096  53.2170 180.3441 0001557  77.0229 283.0937 15.08816942 83669,6917.951,95.439,540.893,538.739,0.0
54096.0,STARLINK-5188,PAYLOAD,2024-04-21 13:25:00,15.08830294,0.0001658,53.2174,178.5594,92.7588,267.3594,0.00034484,5.203e-05,0.0,0 STARLINK-5188,1 54096U 22136AX  24112.55903546  .00005203  00000-0  34484-3 0  9991,2 54096  53.2174 178.5594 0001658  92.7588 267.3594 15.08830294 83250,6917.91,95.438,540.922,538.628,0.0
54096.0,STARLINK-5188,PAYLOAD,2024-04-22 03:43:28,15.08851218,0.0001773,53.2169,175.8823,82.4788,277.6406,0.00099995,0.00015667,0.0,0 STARLINK-5188,1 54096U 22136AX  24113.15519593  .00015667  00000-0  99995-3 0  9996,2 54096  53.2169 175.8823 0001773  82.4788 277.6406 15.08851218 83812,6917.846,95.437,540.938,538.485,0.0
54096.0,STARLINK-5188,PAYLOAD,2024-04-22 10:05:01,15.08861738,0.0001579,53.2166,174.6917,94.3873,265.73,0.0010684,0.00016767,0.0,0 STARLINK-5188,1 54096U 22136AX  24113.42015249  .00016767  00000-0  10684-2 0  9994,2 54096  53.2166 174.6917 0001579  94.3873 265.7300 15.08861738 83382,6917.814,95.436,540.771,538.587,0.0
54096.0,STARLINK-5188,PAYLOAD,2024-04-22 11:40:24,15.08862707,0.0001475,53.2159,174.3943,89.7499,270.3662,0.0010111,0.0001585,0.0,0 STARLINK-5188,1 54096U 22136AX  24113.48639157  .00015850  00000-0  10111-2 0  9997,2 54096  53.2159 174.3943 0001475  89.7499 270.3662 15.08862707 83398,6917.811,95.436,540.696,538.656,0.0
54096.0,STARLINK-5188,PAYLOAD,2024-04-23 11:31:11,15.08847339,0.0001477,53.2164,169.9325,84.7081,275.4079,0.00027891,4.155e-05,0.0,0 STARLINK-5188,1 54096U 22136AX  24114.47999037  .00004155  00000-0  27891-3 0  9993,2 54096  53.2164 169.9325 0001477  84.7081 275.4079 15.08847339 84014,6917.858,95.437,540.745,538.701,0.0
54096.0,STARLINK-5188,PAYLOAD,2024-04-24 12:57:21,15.08846622,0.0001616,53.2169,165.1743,82.2802,277.8374,0.00016815,2.39e-05,0.0,0 STARLINK-5188,1 54096U 22136AX  24115.53982960  .00002390  00000-0  16815-3 0  9991,2 54096  53.2169 165.1743 0001616  82.2802 277.8374 15.08846622 84175,6917.86,95.437,540.843,538.607,0.0
54096.0,STARLINK-5188,PAYLOAD,2024-04-25 09:37:21,15.08840393,0.0001385,53.2157,161.3054,114.34,245.7737,5.0546e-05,5.17e-06,0.0,0 STARLINK-5188,1 54096U 22136AX  24116.40094882  .00000517  00000-0  50546-4 0  9994,2 54096  53.2157 161.3054 0001385 114.3400 245.7737 15.08840393 84300,6917.879,95.438,540.702,538.786,0.0
54096.0,STARLINK-5188,PAYLOAD,2024-04-26 12:38:54,15.08849154,0.0001154,53.2152,156.2529,83.3322,276.7801,0.00011968,1.618e-05,0.0,0 STARLINK-5188,1 54096U 22136AX  24117.52702147  .00001618  00000-0  11968-3 0  9995,2 54096  53.2152 156.2529 0001154  83.3322 276.7801 15.08849154 84475,6917.852,95.437,540.516,538.919,0.0
54096.0,STARLINK-5188,PAYLOAD,2024-04-26 19:00:26,15.08860811,0.0001245,53.2162,155.0681,101.6759,258.4373,0.000189,2.723e-05,0.0,0 STARLINK-5188,1 54096U 22136AX  24117.79197021  .00002723  00000-0  18900-3 0  9994,2 54096  53.2162 155.0681 0001245 101.6759 258.4373 15.08860811 84510,6917.817,95.436,540.543,538.821,0.0
54096.0,STARLINK-5188,PAYLOAD,2024-04-27 02:57:22,15.08849923,0.0001934,53.2154,153.5857,111.8577,248.2621,0.00014043,1.948e-05,0.0,0 STARLINK-5188,1 54096U 22136AX  24118.12317975  .00001948  00000-0  14043-3 0  9996,2 54096  53.2154 153.5857 0001934 111.8577 248.2621 15.08849923 84564,6917.85,95.437,541.053,538.377,0.0
54096.0,STARLINK-5188,PAYLOAD,2024-04-27 09:18:55,15.08846882,0.0001436,53.2152,152.394,105.1165,254.9986,0.00011438,1.533e-05,0.0,0 STARLINK-5188,1 54096U 22136AX  24118.38814052  .00001533  00000-0  11438-3 0  9997,2 54096  53.2152 152.3940 0001436 105.1165 254.9986 15.08846882 84130,6917.859,95.437,540.718,538.731,0.0
54096.0,STARLINK-5188,PAYLOAD,2024-04-27 18:51:13,15.08855766,0.0001498,53.2156,150.608,100.9119,259.2042,0.00020752,3.018e-05,0.0,0 STARLINK-5188,1 54096U 22136AX  24118.78557309  .00003018  00000-0  20752-3 0  9999,2 54096  53.2156 150.6080 0001498 100.9119 259.2042 15.08855766 84198,6917.832,95.437,540.733,538.661,0.0
54096.0,STARLINK-5188,PAYLOAD,2024-04-28 12:20:29,15.08823173,0.0001474,53.2157,147.335,88.4898,271.6263,-0.00031358,-5.273e-05,0.0,0 STARLINK-5188,1 54096U 22136AX  24119.51423278 -.00005273  00000-0 -31358-3 0  9999,2 54096  53.2157 147.3350 0001474  88.4898 271.6263 15.08823173 84774,6917.932,95.439,540.817,538.777,0.0
54096.0,STARLINK-5188,PAYLOAD,2024-04-28 18:42:02,15.08826271,0.0001536,53.2168,146.1473,92.2662,267.8506,-0.00025224,-4.299e-05,0.0,0 STARLINK-5188,1 54096U 22136AX  24119.77919279 -.00004299  00000-0 -25224-3 0  9990,2 54096  53.2168 146.1473 0001536  92.2662 267.8506 15.08826271 84342,6917.922,95.438,540.85,538.725,0.0
54096.0,STARLINK-5188,PAYLOAD,2024-04-29 01:03:34,15.08828402,0.0001607,53.2167,144.9565,85.941,274.1765,-0.00018851,-3.286e-05,0.0,0 STARLINK-5188,1 54096U 22136AX  24120.04415420 -.00003286  00000-0 -18851-3 0  9994,2 54096  53.2167 144.9565 0001607  85.9410 274.1765 15.08828402 84850,6917.916,95.438,540.893,538.669,0.0
54096.0,STARLINK-5188,PAYLOAD,2024-04-29 10:35:54,15.08827376,0.0001381,53.2148,143.1727,88.6135,271.5015,0.00022357,3.271e-05,0.0,0 STARLINK-5188,1 54096U 22136AX  24120.44159901  .00003271  00000-0  22357-3 0  9995,2 54096  53.2148 143.1727 0001381  88.6135 271.5015 15.08827376 84446,6917.919,95.438,540.739,538.829,0.0
54096.0,STARLINK-5188,PAYLOAD,2024-04-29 18:32:50,15.08831226,0.0001408,53.215,141.6857,87.4087,272.7066,0.00041305,6.29e-05,0.0,0 STARLINK-5188,1 54096U 22136AX  24120.77280234  .00006290  00000-0  41305-3 0  9993,2 54096  53.2150 141.6857 0001408  87.4087 272.7066 15.08831226 84492,6917.907,95.438,540.746,538.798,0.0
54096.0,STARLINK-5188,PAYLOAD,2024-04-30 05:40:32,15.08841684,0.0001385,53.2146,139.6041,87.3933,272.7218,0.0005084,7.813e-05,0.0,0 STARLINK-5188,1 54096U 22136AX  24121.23648232  .00007813  00000-0  50840-3 0  9997,2 54096  53.2146 139.6041 0001385  87.3933 272.7218 15.08841684 85031,6917.875,95.437,540.698,538.782,0.0
